NORAD_CAT_ID,OBJECT_NAME,OBJECT_TYPE,EPOCH,MEAN_MOTION,ECCENTRICITY,INCLINATION,RA_OF_ASC_NODE,ARG_OF_PERICENTER,MEAN_ANOMALY,BSTAR,MEAN_MOTION_DOT,MEAN_MOTION_DDOT,TLE_LINE0,TLE_LINE1,TLE_LINE2,SEMIMAJOR_AXIS,PERIOD,APOGEE,PERIGEE,DECAYED
54765.0,STARLINK-5466,PAYLOAD,2023-04-30 04:35:11,15.0884904,0.0001008,53.217,53.1667,95.1163,264.9945,9.8284e-05,1.277e-05,0.0,0 STARLINK-5466,1 54765U 22175H   23120.19110732  .00001277  00000-0  98284-4 0  9998,2 54765  53.2170  53.1667 0001008  95.1163 264.9945 15.08849040 22236,6917.853,95.437,540.415,539.02,0.0
54765.0,STARLINK-5466,PAYLOAD,2023-05-01 04:25:59,15.08845664,0.0001231,53.2183,48.7011,79.7087,280.4044,0.00020022,2.901e-05,0.0,0 STARLINK-5466,1 54765U 22175H   23121.18471110  .00002901  00000-0  20022-3 0  9997,2 54765  53.2183  48.7011 0001231  79.7087 280.4044 15.08845664 20233,6917.863,95.437,540.58,538.876,0.0
54765.0,STARLINK-5466,PAYLOAD,2023-05-01 23:30:36,15.08841873,0.0001352,53.2199,45.1273,102.8492,257.2651,0.0001308,1.794e-05,0.0,0 STARLINK-5466,1 54765U 22175H   23121.97959470  .00001794  00000-0  13080-3 0  9999,2 54765  53.2199  45.1273 0001352 102.8492 257.2651 15.08841873 20350,6917.875,95.437,540.675,538.804,0.0
54765.0,STARLINK-5466,PAYLOAD,2023-05-02 04:16:46,15.08845778,0.0001392,53.2194,44.2389,102.9975,257.1173,0.00021329,3.109e-05,0.0,0 STARLINK-5466,1 54765U 22175H   23122.17831354  .00003109  00000-0  21329-3 0  9999,2 54765  53.2194  44.2389 0001392 102.9975 257.1173 15.08845778 22532,6917.863,95.437,540.691,538.765,0.0
54765.0,STARLINK-5466,PAYLOAD,2023-05-02 21:46:00,15.08848189,0.0001371,53.219,40.9688,105.3,254.8144,0.00020643,3e-05,0.0,0 STARLINK-5466,1 54765U 22175H   23122.90695170  .00003000  00000-0  20643-3 0  9992,2 54765  53.2190  40.9688 0001371 105.3000 254.8144 15.08848189 22649,6917.855,95.437,540.669,538.772,0.0
54765.0,STARLINK-5466,PAYLOAD,2023-05-03 00:56:46,15.0885091,0.0001221,53.2185,40.3768,100.7166,259.3963,0.00025793,3.821e-05,0.0,0 STARLINK-5466,1 54765U 22175H   23123.03943059  .00003821  00000-0  25793-3 0  9991,2 54765  53.2185  40.3768 0001221 100.7166 259.3963 15.08850910 20510,6917.847,95.437,540.557,538.867,0.0
54765.0,STARLINK-5466,PAYLOAD,2023-05-03 21:36:47,15.08842463,0.0001252,53.2182,36.5133,96.7654,263.348,-8.6766e-06,-4.26e-06,0.0,0 STARLINK-5466,1 54765U 22175H   23123.90055228 -.00000426  00000-0 -86766-5 0  9998,2 54765  53.2182  36.5133 0001252  96.7654 263.3480 15.08842463 22795,6917.873,95.437,540.604,538.872,0.0
54765.0,STARLINK-5466,PAYLOAD,2023-05-04 03:58:20,15.0884145,0.0001316,53.2198,35.3218,104.3095,255.8044,-5.4014e-06,-3.74e-06,0.0,0 STARLINK-5466,1 54765U 22175H   23124.16551354 -.00000374  00000-0 -54014-5 0  9991,2 54765  53.2198  35.3218 0001316 104.3095 255.8044 15.08841450 20682,6917.876,95.437,540.651,538.831,0.0
54765.0,STARLINK-5466,PAYLOAD,2023-05-04 21:27:34,15.08844443,0.0001269,53.2184,32.0508,124.6464,235.4648,-2.7273e-06,-3.31e-06,0.0,0 STARLINK-5466,1 54765U 22175H   23124.89415321 -.00000331  00000-0 -27273-5 0  9994,2 54765  53.2184  32.0508 0001269 124.6464 235.4648 15.08844443 22945,6917.867,95.437,540.61,538.854,0.0
54765.0,STARLINK-5466,PAYLOAD,2023-05-05 03:49:06,15.08854109,9.46e-05,53.2172,30.8632,114.8508,245.2583,8.7718e-05,1.109e-05,0.0,0 STARLINK-5466,1 54765U 22175H   23125.15910758  .00001109  00000-0  87718-4 0  9999,2 54765  53.2172  30.8632 0000946 114.8508 245.2583 15.08854109 20830,6917.837,95.437,540.357,539.048,0.0
54765.0,STARLINK-5466,PAYLOAD,2023-05-05 21:18:22,15.08835324,9.65e-05,53.2186,27.5873,121.4281,238.6806,3.6672e-05,2.96e-06,0.0,0 STARLINK-5466,1 54765U 22175H   23125.88775705  .00000296  00000-0  36672-4 0  9999,2 54765  53.2186  27.5873 0000965 121.4281 238.6806 15.08835324 23091,6917.895,95.438,540.427,539.092,0.0
54765.0,STARLINK-5466,PAYLOAD,2023-05-06 00:29:10,15.08785517,0.0001453,53.2179,26.9954,104.8665,255.2488,-0.00070544,-0.00011481,0.0,0 STARLINK-5466,1 54765U 22175H   23126.02026164 -.00011481  00000-0 -70544-3 0  9999,2 54765  53.2179  26.9954 0001453 104.8665 255.2488 15.08785517 20962,6918.047,95.441,540.917,538.907,0.0
54765.0,STARLINK-5466,PAYLOAD,2023-05-07 00:19:55,15.08856497,5.94e-05,53.2178,22.5394,118.3844,241.7208,0.0002591,3.84e-05,0.0,0 STARLINK-5466,1 54765U 22175H   23127.01383115  .00003840  00000-0  25910-3 0  9996,2 54765  53.2178  22.5394 0000594 118.3844 241.7208 15.08856497 21119,6917.83,95.437,540.106,539.284,0.0
54765.0,STARLINK-5466,PAYLOAD,2023-05-07 20:59:57,15.08830345,8.69e-05,53.2177,18.6719,110.099,250.0095,1.2917e-05,-8.2e-07,0.0,0 STARLINK-5466,1 54765U 22175H   23127.87496723 -.00000082  00000-0  12917-4 0  9990,2 54765  53.2177  18.6719 0000869 110.0990 250.0095 15.08830345 21246,6917.91,95.438,540.376,539.174,0.0
54765.0,STARLINK-5466,PAYLOAD,2023-05-08 20:50:43,15.0884997,7.45e-05,53.2175,14.2122,82.0652,278.0424,0.00029745,4.451e-05,0.0,0 STARLINK-5466,1 54765U 22175H   23128.86856148  .00004451  00000-0  29745-3 0  9990,2 54765  53.2175  14.2122 0000745  82.0652 278.0424 15.08849970 21396,6917.85,95.437,540.23,539.2,0.0
54765.0,STARLINK-5466,PAYLOAD,2023-05-08 22:26:06,15.08854886,7.92e-05,53.2174,13.915,77.7697,282.3384,0.00038493,5.846e-05,0.0,0 STARLINK-5466,1 54765U 22175H   23128.93480012  .00005846  00000-0  38493-3 0  9990,2 54765  53.2174  13.9150 0000792  77.7697 282.3384 15.08854886 23559,6917.835,95.437,540.248,539.152,0.0
54765.0,STARLINK-5466,PAYLOAD,2023-05-09 01:36:53,15.08865864,8.25e-05,53.217,13.3203,79.819,280.2895,0.0010718,0.00016823,0.0,0 STARLINK-5466,1 54765U 22175H   23129.06728023  .00016823  00000-0  10718-2 0  9998,2 54765  53.2170  13.3203 0000825  79.8190 280.2895 15.08865864 23570,6917.801,95.436,540.237,539.096,0.0
54765.0,STARLINK-5466,PAYLOAD,2023-05-10 03:03:02,15.08864906,7.09e-05,53.2168,8.5625,107.3421,252.7649,0.00098804,0.00015482,0.0,0 STARLINK-5466,1 54765U 22175H   23130.12711669  .00015482  00000-0  98804-3 0  9998,2 54765  53.2168   8.5625 0000709 107.3421 252.7649 15.08864906 23731,6917.804,95.436,540.16,539.179,0.0
54765.0,STARLINK-5466,PAYLOAD,2023-05-10 18:56:54,15.08851038,9.1e-05,53.2171,5.5885,103.4157,256.6936,0.0014569,0.00022982,0.0,0 STARLINK-5466,1 54765U 22175H   23130.78952044  .00022982  00000-0  14569-2 0  9992,2 54765  53.2171   5.5885 0000910 103.4157 256.6936 15.08851038 21683,6917.847,95.437,540.341,539.082,0.0
54765.0,STARLINK-5466,PAYLOAD,2023-05-10 22:07:40,15.08860059,7.96e-05,53.2171,4.9949,95.8109,264.2974,0.002079,0.00032973,0.0,0 STARLINK-5466,1 54765U 22175H   23130.92200084  .00032973  00000-0  20790-2 0  9992,2 54765  53.2171   4.9949 0000796  95.8109 264.2974 15.08860059 23851,6917.819,95.436,540.235,539.133,0.0
54765.0,STARLINK-5466,PAYLOAD,2023-05-11 21:58:28,15.08854063,9.29e-05,53.2173,0.5346,78.7468,281.3628,0.0017682,0.00027976,0.0,0 STARLINK-5466,1 54765U 22175H   23131.91560836  .00027976  00000-0  17682-2 0  9999,2 54765  53.2173   0.5346 0000929  78.7468 281.3628 15.08854063 21854,6917.837,95.437,540.345,539.06,0.0
54765.0,STARLINK-5466,PAYLOAD,2023-05-12 21:49:15,15.08866284,6.36e-05,53.2174,356.0741,85.314,274.7925,0.0018622,0.00029495,0.0,0 STARLINK-5466,1 54765U 22175H   23132.90920816  .00029495  00000-0  18622-2 0  9990,2 54765  53.2174 356.0741 0000636  85.3140 274.7925 15.08866284 22001,6917.8,95.436,540.105,539.225,0.0
54765.0,STARLINK-5466,PAYLOAD,2023-05-13 21:40:02,15.08848912,7.74e-05,53.2173,351.6113,61.1098,298.9972,0.00070884,0.00011014,0.0,0 STARLINK-5466,1 54765U 22175H   23133.90280883  .00011014  00000-0  70884-3 0  9991,2 54765  53.2173 351.6113 0000774  61.1098 298.9972 15.08848912 24304,6917.853,95.437,540.254,539.183,0.0
54765.0,STARLINK-5466,PAYLOAD,2023-05-14 05:36:58,15.08844032,7.32e-05,53.2172,350.1274,83.1706,276.937,0.00028002,4.172e-05,0.0,0 STARLINK-5466,1 54765U 22175H   23134.23400868  .00004172  00000-0  28002-3 0  9997,2 54765  53.2172 350.1274 0000732  83.1706 276.9370 15.08844032 22203,6917.868,95.437,540.239,539.227,0.0
54765.0,STARLINK-5466,PAYLOAD,2023-05-14 13:33:54,15.0884253,7.59e-05,53.2175,348.6406,83.1049,277.003,0.00012219,1.658e-05,0.0,0 STARLINK-5466,1 54765U 22175H   23134.56520862  .00001658  00000-0  12219-3 0  9999,2 54765  53.2175 348.6406 0000759  83.1049 277.0030 15.08842530 24404,6917.873,95.437,540.263,539.213,0.0
54765.0,STARLINK-5466,PAYLOAD,2023-05-14 21:30:49,15.08842687,8.15e-05,53.2179,347.1539,82.7199,277.3886,3.4388e-05,2.6e-06,0.0,0 STARLINK-5466,1 54765U 22175H   23134.89640888  .00000260  00000-0  34388-4 0  9996,2 54765  53.2179 347.1539 0000815  82.7199 277.3886 15.08842687 24453,6917.872,95.437,540.301,539.173,0.0
54765.0,STARLINK-5466,PAYLOAD,2023-05-14 23:06:12,15.08843202,8.2e-05,53.2178,346.8567,89.2064,270.9022,4.3435e-05,4.04e-06,0.0,0 STARLINK-5466,1 54765U 22175H   23134.96264860  .00000404  00000-0  43435-4 0  9999,2 54765  53.2178 346.8567 0000820  89.2064 270.9022 15.08843202 22316,6917.871,95.437,540.303,539.168,0.0
54765.0,STARLINK-5466,PAYLOAD,2023-05-15 13:24:41,15.08841984,0.0001055,53.2163,344.1794,85.6725,274.4388,9.3343e-05,1.198e-05,0.0,0 STARLINK-5466,1 54765U 22175H   23135.55881008  .00001198  00000-0  93343-4 0  9998,2 54765  53.2163 344.1794 0001055  85.6725 274.4388 15.08841984 24555,6917.874,95.437,540.469,539.009,0.0
54765.0,STARLINK-5466,PAYLOAD,2023-05-15 21:21:36,15.08840048,0.000105,53.2162,342.6924,83.6839,276.4273,5.7139e-05,6.22e-06,0.0,0 STARLINK-5466,1 54765U 22175H   23135.89001137  .00000622  00000-0  57139-4 0  9996,2 54765  53.2162 342.6924 0001050  83.6839 276.4273 15.08840048 24602,6917.88,95.438,540.472,539.019,0.0
54765.0,STARLINK-5466,PAYLOAD,2023-05-15 22:57:00,15.08840207,0.0001058,53.216,342.3952,81.9233,278.1879,4.021e-05,3.52e-06,0.0,0 STARLINK-5466,1 54765U 22175H   23135.95625138  .00000352  00000-0  40210-4 0  9998,2 54765  53.2160 342.3952 0001058  81.9233 278.1879 15.08840207 22465,6917.88,95.438,540.477,539.013,0.0
